{"type": "FeatureCollection", "features": [{"type": "Feature", "properties": {"parcel_id": "isb_narc_00", "field_id": "isb_narc", "scores": {"chickpea": 35.70000076293945, "groundnut": 33.400001525878906, "maize": 71.19999694824219, "mustard": 12.399999618530273, "olive": 16.200000762939453, "wheat": 54.70000076293945}, "top_crop": "maize", "top_score": 71.2}, "geometry": {"type": "Polygon", "coordinates": [[[73.08, 33.64], [73.10666666666667, 33.64], [73.10666666666667, 33.660000000000004], [73.08, 33.660000000000004], [73.08, 33.64]]]}}, {"type": "Feature", "properties": {"parcel_id": "isb_narc_01", "field_id": "isb_narc", "scores": {"chickpea": 35.70000076293945, "groundnut": 33.400001525878906, "maize": 71.19999694824219, "mustard": 12.399999618530273, "olive": 16.200000762939453, "wheat": 54.70000076293945}, "top_crop": "maize", "top_score": 71.2}, "geometry": {"type": "Polygon", "coordinates": [[[73.08, 33.660000000000004], [73.10666666666667, 33.660000000000004], [73.10666666666667, 33.68000000000001], [73.08, 33.68000000000001], [73.08, 33.660000000000004]]]}}, {"type": "Feature", "properties": {"parcel_id": "isb_narc_02", "field_id": "isb_narc", "scores": {"chickpea": 35.70000076293945, "groundnut": 33.400001525878906, "maize": 71.19999694824219, "mustard": 12.399999618530273, "olive": 16.200000762939453, "wheat": 54.70000076293945}, "top_crop": "maize", "top_score": 71.2}, "geometry": {"type": "Polygon", "coordinates": [[[73.08, 33.68], [73.10666666666667, 33.68], [73.10666666666667, 33.7], [73.08, 33.7], [73.08, 33.68]]]}}, {"type": "Feature", "properties": {"parcel_id": "isb_narc_10", "field_id": "isb_narc", "scores": {"chickpea": 35.70000076293945, "groundnut": 33.400001525878906, "maize": 71.19999694824219, "mustard": 12.399999618530273, "olive": 16.200000762939453, "wheat": 54.70000076293945}, "top_crop": "maize", "top_score": 71.2}, "geometry": {"type": "Polygon", "coordinates": [[[73.10666666666667, 33.64], [73.13333333333334, 33.64], [73.13333333333334, 33.660000000000004], [73.10666666666667, 33.660000000000004], [73.10666666666667, 33.64]]]}}, {"type": "Feature", "properties": {"parcel_id": "isb_narc_11", "field_id": "isb_narc", "scores": {"chickpea": 35.70000076293945, "groundnut": 33.400001525878906, "maize": 71.19999694824219, "mustard": 12.399999618530273, "olive": 16.200000762939453, "wheat": 54.70000076293945}, "top_crop": "maize", "top_score": 71.2}, "geometry": {"type": "Polygon", "coordinates": [[[73.10666666666667, 33.660000000000004], [73.13333333333334, 33.660000000000004], [73.13333333333334, 33.68000000000001], [73.10666666666667, 33.68000000000001], [73.10666666666667, 33.660000000000004]]]}}, {"type": "Feature", "properties": {"parcel_id": "isb_narc_12", "field_id": "isb_narc", "scores": {"chickpea": 35.70000076293945, "groundnut": 33.400001525878906, "maize": 71.19999694824219, "mustard": 12.399999618530273, "olive": 16.200000762939453, "wheat": 54.70000076293945}, "top_crop": "maize", "top_score": 71.2}, "geometry": {"type": "Polygon", "coordinates": [[[73.10666666666667, 33.68], [73.13333333333334, 33.68], [73.13333333333334, 33.7], [73.10666666666667, 33.7], [73.10666666666667, 33.68]]]}}, {"type": "Feature", "properties": {"parcel_id": "isb_narc_20", "field_id": "isb_narc", "scores": {"chickpea": 35.70000076293945, "groundnut": 33.400001525878906, "maize": 71.19999694824219, "mustard": 12.399999618530273, "olive": 16.200000762939453, "wheat": 54.70000076293945}, "top_crop": "maize", "top_score": 71.2}, "geometry": {"type": "Polygon", "coordinates": [[[73.13333333333333, 33.64], [73.16, 33.64], [73.16, 33.660000000000004], [73.13333333333333, 33.660000000000004], [73.13333333333333, 33.64]]]}}, {"type": "Feature", "properties": {"parcel_id": "isb_narc_21", "field_id": "isb_narc", "scores": {"chickpea": 35.70000076293945, "groundnut": 33.400001525878906, "maize": 71.19999694824219, "mustard": 12.399999618530273, "olive": 16.200000762939453, "wheat": 54.70000076293945}, "top_crop": "maize", "top_score": 71.2}, "geometry": {"type": "Polygon", "coordinates": [[[73.13333333333333, 33.660000000000004], [73.16, 33.660000000000004], [73.16, 33.68000000000001], [73.13333333333333, 33.68000000000001], [73.13333333333333, 33.660000000000004]]]}}, {"type": "Feature", "properties": {"parcel_id": "isb_narc_22", "field_id": "isb_narc", "scores": {"chickpea": 35.70000076293945, "groundnut": 33.400001525878906, "maize": 71.19999694824219, "mustard": 12.399999618530273, "olive": 16.200000762939453, "wheat": 54.70000076293945}, "top_crop": "maize", "top_score": 71.2}, "geometry": {"type": "Polygon", "coordinates": [[[73.13333333333333, 33.68], [73.16, 33.68], [73.16, 33.7], [73.13333333333333, 33.7], [73.13333333333333, 33.68]]]}}, {"type": "Feature", "properties": {"parcel_id": "rwp_rawat_00", "field_id": "rwp_rawat", "scores": {"chickpea": 36.70000076293945, "groundnut": 46.29999923706055, "maize": 85.4000015258789, "mustard": 13.800000190734863, "olive": 16.899999618530273, "wheat": 55.900001525878906}, "top_crop": "maize", "top_score": 85.4}, "geometry": {"type": "Polygon", "coordinates": [[[73.1, 33.42], [73.14999999999999, 33.42], [73.14999999999999, 33.45333333333333], [73.1, 33.45333333333333], [73.1, 33.42]]]}}, {"type": "Feature", "properties": {"parcel_id": "rwp_rawat_01", "field_id": "rwp_rawat", "scores": {"chickpea": 36.70000076293945, "groundnut": 46.29999923706055, "maize": 85.4000015258789, "mustard": 13.800000190734863, "olive": 16.899999618530273, "wheat": 55.900001525878906}, "top_crop": "maize", "top_score": 85.4}, "geometry": {"type": "Polygon", "coordinates": [[[73.1, 33.45333333333333], [73.14999999999999, 33.45333333333333], [73.14999999999999, 33.486666666666665], [73.1, 33.486666666666665], [73.1, 33.45333333333333]]]}}, {"type": "Feature", "properties": {"parcel_id": "rwp_rawat_02", "field_id": "rwp_rawat", "scores": {"chickpea": 36.70000076293945, "groundnut": 46.29999923706055, "maize": 85.4000015258789, "mustard": 13.800000190734863, "olive": 16.899999618530273, "wheat": 55.900001525878906}, "top_crop": "maize", "top_score": 85.4}, "geometry": {"type": "Polygon", "coordinates": [[[73.1, 33.48666666666667], [73.14999999999999, 33.48666666666667], [73.14999999999999, 33.52], [73.1, 33.52], [73.1, 33.48666666666667]]]}}, {"type": "Feature", "properties": {"parcel_id": "rwp_rawat_10", "field_id": "rwp_rawat", "scores": {"chickpea": 36.70000076293945, "groundnut": 46.29999923706055, "maize": 85.4000015258789, "mustard": 13.800000190734863, "olive": 16.899999618530273, "wheat": 55.900001525878906}, "top_crop": "maize", "top_score": 85.4}, "geometry": {"type": "Polygon", "coordinates": [[[73.14999999999999, 33.42], [73.19999999999999, 33.42], [73.19999999999999, 33.45333333333333], [73.14999999999999, 33.45333333333333], [73.14999999999999, 33.42]]]}}, {"type": "Feature", "properties": {"parcel_id": "rwp_rawat_11", "field_id": "rwp_rawat", "scores": {"chickpea": 36.70000076293945, "groundnut": 46.29999923706055, "maize": 85.4000015258789, "mustard": 13.800000190734863, "olive": 16.899999618530273, "wheat": 55.900001525878906}, "top_crop": "maize", "top_score": 85.4}, "geometry": {"type": "Polygon", "coordinates": [[[73.14999999999999, 33.45333333333333], [73.19999999999999, 33.45333333333333], [73.19999999999999, 33.486666666666665], [73.14999999999999, 33.486666666666665], [73.14999999999999, 33.45333333333333]]]}}, {"type": "Feature", "properties": {"parcel_id": "rwp_rawat_12", "field_id": "rwp_rawat", "scores": {"chickpea": 36.70000076293945, "groundnut": 46.29999923706055, "maize": 85.4000015258789, "mustard": 13.800000190734863, "olive": 16.899999618530273, "wheat": 55.900001525878906}, "top_crop": "maize", "top_score": 85.4}, "geometry": {"type": "Polygon", "coordinates": [[[73.14999999999999, 33.48666666666667], [73.19999999999999, 33.48666666666667], [73.19999999999999, 33.52], [73.14999999999999, 33.52], [73.14999999999999, 33.48666666666667]]]}}, {"type": "Feature", "properties": {"parcel_id": "rwp_rawat_20", "field_id": "rwp_rawat", "scores": {"chickpea": 36.70000076293945, "groundnut": 46.29999923706055, "maize": 85.4000015258789, "mustard": 13.800000190734863, "olive": 16.899999618530273, "wheat": 55.900001525878906}, "top_crop": "maize", "top_score": 85.4}, "geometry": {"type": "Polygon", "coordinates": [[[73.2, 33.42], [73.25, 33.42], [73.25, 33.45333333333333], [73.2, 33.45333333333333], [73.2, 33.42]]]}}, {"type": "Feature", "properties": {"parcel_id": "rwp_rawat_21", "field_id": "rwp_rawat", "scores": {"chickpea": 36.70000076293945, "groundnut": 46.29999923706055, "maize": 85.4000015258789, "mustard": 13.800000190734863, "olive": 16.899999618530273, "wheat": 55.900001525878906}, "top_crop": "maize", "top_score": 85.4}, "geometry": {"type": "Polygon", "coordinates": [[[73.2, 33.45333333333333], [73.25, 33.45333333333333], [73.25, 33.486666666666665], [73.2, 33.486666666666665], [73.2, 33.45333333333333]]]}}, {"type": "Feature", "properties": {"parcel_id": "rwp_rawat_22", "field_id": "rwp_rawat", "scores": {"chickpea": 36.70000076293945, "groundnut": 46.29999923706055, "maize": 85.4000015258789, "mustard": 13.800000190734863, "olive": 16.899999618530273, "wheat": 55.900001525878906}, "top_crop": "maize", "top_score": 85.4}, "geometry": {"type": "Polygon", "coordinates": [[[73.2, 33.48666666666667], [73.25, 33.48666666666667], [73.25, 33.52], [73.2, 33.52], [73.2, 33.48666666666667]]]}}, {"type": "Feature", "properties": {"parcel_id": "rwp_gujarkhan_00", "field_id": "rwp_gujarkhan", "scores": {"chickpea": 36.70000076293945, "groundnut": 42.0, "maize": 85.30000305175781, "mustard": 13.800000190734863, "olive": 16.700000762939453, "wheat": 55.900001525878906}, "top_crop": "maize", "top_score": 85.3}, "geometry": {"type": "Polygon", "coordinates": [[[73.25, 33.22], [73.3, 33.22], [73.3, 33.24666666666666], [73.25, 33.24666666666666], [73.25, 33.22]]]}}, {"type": "Feature", "properties": {"parcel_id": "rwp_gujarkhan_01", "field_id": "rwp_gujarkhan", "scores": {"chickpea": 36.70000076293945, "groundnut": 42.0, "maize": 85.30000305175781, "mustard": 13.800000190734863, "olive": 16.700000762939453, "wheat": 55.900001525878906}, "top_crop": "maize", "top_score": 85.3}, "geometry": {"type": "Polygon", "coordinates": [[[73.25, 33.24666666666666], [73.3, 33.24666666666666], [73.3, 33.273333333333326], [73.25, 33.273333333333326], [73.25, 33.24666666666666]]]}}, {"type": "Feature", "properties": {"parcel_id": "rwp_gujarkhan_02", "field_id": "rwp_gujarkhan", "scores": {"chickpea": 36.70000076293945, "groundnut": 42.0, "maize": 85.30000305175781, "mustard": 13.800000190734863, "olive": 16.700000762939453, "wheat": 55.900001525878906}, "top_crop": "maize", "top_score": 85.3}, "geometry": {"type": "Polygon", "coordinates": [[[73.25, 33.27333333333333], [73.3, 33.27333333333333], [73.3, 33.3], [73.25, 33.3], [73.25, 33.27333333333333]]]}}, {"type": "Feature", "properties": {"parcel_id": "rwp_gujarkhan_10", "field_id": "rwp_gujarkhan", "scores": {"chickpea": 36.70000076293945, "groundnut": 42.0, "maize": 85.30000305175781, "mustard": 13.800000190734863, "olive": 16.700000762939453, "wheat": 55.900001525878906}, "top_crop": "maize", "top_score": 85.3}, "geometry": {"type": "Polygon", "coordinates": [[[73.3, 33.22], [73.35, 33.22], [73.35, 33.24666666666666], [73.3, 33.24666666666666], [73.3, 33.22]]]}}, {"type": "Feature", "properties": {"parcel_id": "rwp_gujarkhan_11", "field_id": "rwp_gujarkhan", "scores": {"chickpea": 36.70000076293945, "groundnut": 42.0, "maize": 85.30000305175781, "mustard": 13.800000190734863, "olive": 16.700000762939453, "wheat": 55.900001525878906}, "top_crop": "maize", "top_score": 85.3}, "geometry": {"type": "Polygon", "coordinates": [[[73.3, 33.24666666666666], [73.35, 33.24666666666666], [73.35, 33.273333333333326], [73.3, 33.273333333333326], [73.3, 33.24666666666666]]]}}, {"type": "Feature", "properties": {"parcel_id": "rwp_gujarkhan_12", "field_id": "rwp_gujarkhan", "scores": {"chickpea": 36.70000076293945, "groundnut": 42.0, "maize": 85.30000305175781, "mustard": 13.800000190734863, "olive": 16.700000762939453, "wheat": 55.900001525878906}, "top_crop": "maize", "top_score": 85.3}, "geometry": {"type": "Polygon", "coordinates": [[[73.3, 33.27333333333333], [73.35, 33.27333333333333], [73.35, 33.3], [73.3, 33.3], [73.3, 33.27333333333333]]]}}, {"type": "Feature", "properties": {"parcel_id": "rwp_gujarkhan_20", "field_id": "rwp_gujarkhan", "scores": {"chickpea": 36.70000076293945, "groundnut": 42.0, "maize": 85.30000305175781, "mustard": 13.800000190734863, "olive": 16.700000762939453, "wheat": 55.900001525878906}, "top_crop": "maize", "top_score": 85.3}, "geometry": {"type": "Polygon", "coordinates": [[[73.35000000000001, 33.22], [73.4, 33.22], [73.4, 33.24666666666666], [73.35000000000001, 33.24666666666666], [73.35000000000001, 33.22]]]}}, {"type": "Feature", "properties": {"parcel_id": "rwp_gujarkhan_21", "field_id": "rwp_gujarkhan", "scores": {"chickpea": 36.70000076293945, "groundnut": 42.0, "maize": 85.30000305175781, "mustard": 13.800000190734863, "olive": 16.700000762939453, "wheat": 55.900001525878906}, "top_crop": "maize", "top_score": 85.3}, "geometry": {"type": "Polygon", "coordinates": [[[73.35000000000001, 33.24666666666666], [73.4, 33.24666666666666], [73.4, 33.273333333333326], [73.35000000000001, 33.273333333333326], [73.35000000000001, 33.24666666666666]]]}}, {"type": "Feature", "properties": {"parcel_id": "rwp_gujarkhan_22", "field_id": "rwp_gujarkhan", "scores": {"chickpea": 36.70000076293945, "groundnut": 42.0, "maize": 85.30000305175781, "mustard": 13.800000190734863, "olive": 16.700000762939453, "wheat": 55.900001525878906}, "top_crop": "maize", "top_score": 85.3}, "geometry": {"type": "Polygon", "coordinates": [[[73.35000000000001, 33.27333333333333], [73.4, 33.27333333333333], [73.4, 33.3], [73.35000000000001, 33.3], [73.35000000000001, 33.27333333333333]]]}}, {"type": "Feature", "properties": {"parcel_id": "atk_fatehjang_00", "field_id": "atk_fatehjang", "scores": {"chickpea": 27.799999237060547, "groundnut": 29.600000381469727, "maize": 62.20000076293945, "mustard": 11.699999809265137, "olive": 48.20000076293945, "wheat": 54.900001525878906}, "top_crop": "maize", "top_score": 62.2}, "geometry": {"type": "Polygon", "coordinates": [[[72.6, 33.5], [72.64999999999999, 33.5], [72.64999999999999, 33.53333333333333], [72.6, 33.53333333333333], [72.6, 33.5]]]}}, {"type": "Feature", "properties": {"parcel_id": "atk_fatehjang_01", "field_id": "atk_fatehjang", "scores": {"chickpea": 27.799999237060547, "groundnut": 29.600000381469727, "maize": 62.20000076293945, "mustard": 11.699999809265137, "olive": 48.20000076293945, "wheat": 54.900001525878906}, "top_crop": "maize", "top_score": 62.2}, "geometry": {"type": "Polygon", "coordinates": [[[72.6, 33.53333333333333], [72.64999999999999, 33.53333333333333], [72.64999999999999, 33.56666666666666], [72.6, 33.56666666666666], [72.6, 33.53333333333333]]]}}, {"type": "Feature", "properties": {"parcel_id": "atk_fatehjang_02", "field_id": "atk_fatehjang", "scores": {"chickpea": 27.799999237060547, "groundnut": 29.600000381469727, "maize": 62.20000076293945, "mustard": 11.699999809265137, "olive": 48.20000076293945, "wheat": 54.900001525878906}, "top_crop": "maize", "top_score": 62.2}, "geometry": {"type": "Polygon", "coordinates": [[[72.6, 33.56666666666667], [72.64999999999999, 33.56666666666667], [72.64999999999999, 33.6], [72.6, 33.6], [72.6, 33.56666666666667]]]}}, {"type": "Feature", "properties": {"parcel_id": "atk_fatehjang_10", "field_id": "atk_fatehjang", "scores": {"chickpea": 27.799999237060547, "groundnut": 29.600000381469727, "maize": 62.20000076293945, "mustard": 11.699999809265137, "olive": 48.20000076293945, "wheat": 54.900001525878906}, "top_crop": "maize", "top_score": 62.2}, "geometry": {"type": "Polygon", "coordinates": [[[72.64999999999999, 33.5], [72.69999999999999, 33.5], [72.69999999999999, 33.53333333333333], [72.64999999999999, 33.53333333333333], [72.64999999999999, 33.5]]]}}, {"type": "Feature", "properties": {"parcel_id": "atk_fatehjang_11", "field_id": "atk_fatehjang", "scores": {"chickpea": 27.799999237060547, "groundnut": 29.600000381469727, "maize": 62.20000076293945, "mustard": 11.699999809265137, "olive": 48.20000076293945, "wheat": 54.900001525878906}, "top_crop": "maize", "top_score": 62.2}, "geometry": {"type": "Polygon", "coordinates": [[[72.64999999999999, 33.53333333333333], [72.69999999999999, 33.53333333333333], [72.69999999999999, 33.56666666666666], [72.64999999999999, 33.56666666666666], [72.64999999999999, 33.53333333333333]]]}}, {"type": "Feature", "properties": {"parcel_id": "atk_fatehjang_12", "field_id": "atk_fatehjang", "scores": {"chickpea": 27.799999237060547, "groundnut": 29.600000381469727, "maize": 62.20000076293945, "mustard": 11.699999809265137, "olive": 48.20000076293945, "wheat": 54.900001525878906}, "top_crop": "maize", "top_score": 62.2}, "geometry": {"type": "Polygon", "coordinates": [[[72.64999999999999, 33.56666666666667], [72.69999999999999, 33.56666666666667], [72.69999999999999, 33.6], [72.64999999999999, 33.6], [72.64999999999999, 33.56666666666667]]]}}, {"type": "Feature", "properties": {"parcel_id": "atk_fatehjang_20", "field_id": "atk_fatehjang", "scores": {"chickpea": 27.799999237060547, "groundnut": 29.600000381469727, "maize": 62.20000076293945, "mustard": 11.699999809265137, "olive": 48.20000076293945, "wheat": 54.900001525878906}, "top_crop": "maize", "top_score": 62.2}, "geometry": {"type": "Polygon", "coordinates": [[[72.7, 33.5], [72.75, 33.5], [72.75, 33.53333333333333], [72.7, 33.53333333333333], [72.7, 33.5]]]}}, {"type": "Feature", "properties": {"parcel_id": "atk_fatehjang_21", "field_id": "atk_fatehjang", "scores": {"chickpea": 27.799999237060547, "groundnut": 29.600000381469727, "maize": 62.20000076293945, "mustard": 11.699999809265137, "olive": 48.20000076293945, "wheat": 54.900001525878906}, "top_crop": "maize", "top_score": 62.2}, "geometry": {"type": "Polygon", "coordinates": [[[72.7, 33.53333333333333], [72.75, 33.53333333333333], [72.75, 33.56666666666666], [72.7, 33.56666666666666], [72.7, 33.53333333333333]]]}}, {"type": "Feature", "properties": {"parcel_id": "atk_fatehjang_22", "field_id": "atk_fatehjang", "scores": {"chickpea": 27.799999237060547, "groundnut": 29.600000381469727, "maize": 62.20000076293945, "mustard": 11.699999809265137, "olive": 48.20000076293945, "wheat": 54.900001525878906}, "top_crop": "maize", "top_score": 62.2}, "geometry": {"type": "Polygon", "coordinates": [[[72.7, 33.56666666666667], [72.75, 33.56666666666667], [72.75, 33.6], [72.7, 33.6], [72.7, 33.56666666666667]]]}}, {"type": "Feature", "properties": {"parcel_id": "ckw_chakwal_00", "field_id": "ckw_chakwal", "scores": {"chickpea": 16.600000381469727, "groundnut": 34.900001525878906, "maize": 80.0, "mustard": 13.899999618530273, "olive": 50.70000076293945, "wheat": 34.0}, "top_crop": "maize", "top_score": 80.0}, "geometry": {"type": "Polygon", "coordinates": [[[72.8, 32.9], [72.85, 32.9], [72.85, 32.93333333333333], [72.8, 32.93333333333333], [72.8, 32.9]]]}}, {"type": "Feature", "properties": {"parcel_id": "ckw_chakwal_01", "field_id": "ckw_chakwal", "scores": {"chickpea": 16.600000381469727, "groundnut": 34.900001525878906, "maize": 80.0, "mustard": 13.899999618530273, "olive": 50.70000076293945, "wheat": 34.0}, "top_crop": "maize", "top_score": 80.0}, "geometry": {"type": "Polygon", "coordinates": [[[72.8, 32.93333333333333], [72.85, 32.93333333333333], [72.85, 32.96666666666666], [72.8, 32.96666666666666], [72.8, 32.93333333333333]]]}}, {"type": "Feature", "properties": {"parcel_id": "ckw_chakwal_02", "field_id": "ckw_chakwal", "scores": {"chickpea": 16.600000381469727, "groundnut": 34.900001525878906, "maize": 80.0, "mustard": 13.899999618530273, "olive": 50.70000076293945, "wheat": 34.0}, "top_crop": "maize", "top_score": 80.0}, "geometry": {"type": "Polygon", "coordinates": [[[72.8, 32.96666666666667], [72.85, 32.96666666666667], [72.85, 33.0], [72.8, 33.0], [72.8, 32.96666666666667]]]}}, {"type": "Feature", "properties": {"parcel_id": "ckw_chakwal_10", "field_id": "ckw_chakwal", "scores": {"chickpea": 16.600000381469727, "groundnut": 34.900001525878906, "maize": 80.0, "mustard": 13.899999618530273, "olive": 50.70000076293945, "wheat": 34.0}, "top_crop": "maize", "top_score": 80.0}, "geometry": {"type": "Polygon", "coordinates": [[[72.85, 32.9], [72.89999999999999, 32.9], [72.89999999999999, 32.93333333333333], [72.85, 32.93333333333333], [72.85, 32.9]]]}}, {"type": "Feature", "properties": {"parcel_id": "ckw_chakwal_11", "field_id": "ckw_chakwal", "scores": {"chickpea": 16.600000381469727, "groundnut": 34.900001525878906, "maize": 80.0, "mustard": 13.899999618530273, "olive": 50.70000076293945, "wheat": 34.0}, "top_crop": "maize", "top_score": 80.0}, "geometry": {"type": "Polygon", "coordinates": [[[72.85, 32.93333333333333], [72.89999999999999, 32.93333333333333], [72.89999999999999, 32.96666666666666], [72.85, 32.96666666666666], [72.85, 32.93333333333333]]]}}, {"type": "Feature", "properties": {"parcel_id": "ckw_chakwal_12", "field_id": "ckw_chakwal", "scores": {"chickpea": 16.600000381469727, "groundnut": 34.900001525878906, "maize": 80.0, "mustard": 13.899999618530273, "olive": 50.70000076293945, "wheat": 34.0}, "top_crop": "maize", "top_score": 80.0}, "geometry": {"type": "Polygon", "coordinates": [[[72.85, 32.96666666666667], [72.89999999999999, 32.96666666666667], [72.89999999999999, 33.0], [72.85, 33.0], [72.85, 32.96666666666667]]]}}, {"type": "Feature", "properties": {"parcel_id": "ckw_chakwal_20", "field_id": "ckw_chakwal", "scores": {"chickpea": 16.600000381469727, "groundnut": 34.900001525878906, "maize": 80.0, "mustard": 13.899999618530273, "olive": 50.70000076293945, "wheat": 34.0}, "top_crop": "maize", "top_score": 80.0}, "geometry": {"type": "Polygon", "coordinates": [[[72.9, 32.9], [72.95, 32.9], [72.95, 32.93333333333333], [72.9, 32.93333333333333], [72.9, 32.9]]]}}, {"type": "Feature", "properties": {"parcel_id": "ckw_chakwal_21", "field_id": "ckw_chakwal", "scores": {"chickpea": 16.600000381469727, "groundnut": 34.900001525878906, "maize": 80.0, "mustard": 13.899999618530273, "olive": 50.70000076293945, "wheat": 34.0}, "top_crop": "maize", "top_score": 80.0}, "geometry": {"type": "Polygon", "coordinates": [[[72.9, 32.93333333333333], [72.95, 32.93333333333333], [72.95, 32.96666666666666], [72.9, 32.96666666666666], [72.9, 32.93333333333333]]]}}, {"type": "Feature", "properties": {"parcel_id": "ckw_chakwal_22", "field_id": "ckw_chakwal", "scores": {"chickpea": 16.600000381469727, "groundnut": 34.900001525878906, "maize": 80.0, "mustard": 13.899999618530273, "olive": 50.70000076293945, "wheat": 34.0}, "top_crop": "maize", "top_score": 80.0}, "geometry": {"type": "Polygon", "coordinates": [[[72.9, 32.96666666666667], [72.95, 32.96666666666667], [72.95, 33.0], [72.9, 33.0], [72.9, 32.96666666666667]]]}}]}